#cP2022  3 28 18  0  0.00000000     576 d+D   IGb14 EXT AIUB
## 2203 151200.00000000   300.00000000 59666 0.7500000000000
+   75   G01G02G03G04G05G06G07G08G09G10G11G12G13G14G15G16G17
+        G18G19G20G21G22G23G25G26G27G28G29G30G31G32R01R02R03
+        R04R05R07R08R09R12R13R14R15R17R18R19R20R21R24E01E02
+        E03E04E05E07E08E09E10E11E12E13E14E15E18E19E21E24E25
+        E26E27E30E31E33E34E36  0  0  0  0  0  0  0  0  0  0
++         6  7  6  8  7  6  7  6  6  6  9  7  7  7  7  7  7
++         8  7  7  7  7  7  5  6  6  7  7  6  7  6  8  7  7
++         7  6  7  7  7  7  8  7  7  8  7  9  9  7  7  5  5
++         6  6  6  6  6  6  7  7  7  6  5  6  7  7  5  6  5
++         7  5  6  6  6  7  6  0  0  0  0  0  0  0  0  0  0
%c M  cc GPS ccc cccc cccc cccc cccc ccccc ccccc ccccc ccccc
%c cc cc ccc ccc cccc cccc cccc cccc ccccc ccccc ccccc ccccc
%f  1.2500000  1.025000000  0.00000000000  0.000000000000000
%f  0.0000000  0.000000000  0.00000000000  0.000000000000000
%i    0    0    0    0      0      0      0      0         0
%i    0    0    0    0      0      0      0      0         0
/* Center for Orbit Determination in Europe (CODE)          
/* Ultra-rapid GRE orbits starting year-day 22087 18 hour   
/* Observed/predicted: 24/24 hours (data used up to 088R)   
/* PCV:IGS14      OL/AL:FES2014b NONE     YN ORB:CoN CLK:BRD
*  2022  3 30 15 40  0.00000000
PG01   6978.510102 -18216.150678 -18142.353033    396.600811               P   P
PG02 -21377.698955  15880.336409    177.225398   -652.775227               P   P
PG03  -3548.378654 -17315.321901 -19963.274054   -186.032178               P   P
PG04    909.646824 -26468.301766  -1249.476386   -179.840683               P   P
PG05 -13075.565720   9855.939952  20780.657894    -76.522359               P   P
PG06 -22342.963636   2848.699520 -14074.370503    249.139958               P   P
PG07 -10031.272234 -12103.474759  21824.813749    318.420116               P   P
PG08   6539.743965 -22978.591941  11184.303473    -61.896494               P   P
PG09  -7656.660598 -23721.724853   9057.199170   -346.804571               P   P
PG10  24023.088630  11582.427509  -1503.741023   -363.033836               P   P
PG11 -23290.611929  12755.281800    -15.863671    -52.669728               P   P
PG12  -1263.755340  16369.035645 -21171.303395   -192.772219               P   P
PG13 -12844.570331  16452.834199  16174.546556    285.613088               P   P
PG14 -23263.926801 -12872.497066   -914.631916    -98.571769               P   P
PG15  -3676.930964  24004.376702   9970.298346    -72.790118               P   P
PG16  17439.857081  -4486.557342  19404.265353   -486.438753               P   P
PG17 -13110.481164 -10785.149137 -19984.620047    593.980237               P   P
PG18   9091.218675  11992.687545  21883.688745    207.644977               P   P
PG19 -14748.648693  -2895.399174 -22168.163077    137.844072               P   P
PG20 -20670.230552   4960.675699  15775.515130    516.062323               P   P
PG21  15810.894228 -18907.345607  -8305.090101    159.971948               P   P
PG22  15033.810000   -737.675849 -21469.398359    235.556267               P   P
PG23  18922.767171  16383.282313   9023.554373    -11.072354               P   P
PG25  12847.917498  18437.717035 -14659.858847    305.346647               P   P
PG26  24238.305805   2537.144163  10838.646350    194.857417               P   P
PG27  12473.379253 -13288.082116  18966.786737    169.943262               P   P
PG28 -23357.509879  -8167.913519  -8817.988335    374.629001               P   P
PG29   4337.440862  24888.847581   8051.374249   -497.401984               P   P
PG30 -17615.106716  -5885.564826  19149.820311   -521.380384               P   P
PG31  23695.935563  -4257.432983 -11848.159790   -171.237165               P   P
PG32  14856.969754   7171.371909 -20713.299542    -95.121279               P   P
PR01  14683.183109  19768.052640  -6623.370799      7.438473               P   P
PR02  13419.563314   4103.138803 -21268.677425    514.041599               P   P
PR03   4522.922000 -13121.098973 -21339.575032     53.979456               P   P
PR04  -6808.277726 -22644.457324  -9524.244406    134.330306               P   P
PR05 -14249.322395 -19747.625660   7572.326522     90.314042               P   P
PR07  -4058.238772  13797.463215  21122.705297     33.257600               P   P
PR08   6848.929064  22692.215128   9519.243009    -64.276865               P   P
PR09 -25408.515086    806.101340  -2517.388814     47.179977               P   P
PR12  19596.949752   7538.877594 -14479.325686     17.644837               P   P
PR13  25475.645071    -98.871816   1296.709165    -20.129606               P   P
PR14  16261.266993  -8196.100884  17861.470748     75.956999               P   P
PR15  -2088.151045 -11062.891251  22902.714445     97.209588               P   P
PR17  14984.450121 -20292.911279   3900.154656    513.643242               P   P
PR18   6833.335294 -21033.010372 -12644.807353    111.850910               P   P
PR19  -3854.999414 -11840.716308 -22262.129927   -183.474265               P   P
PR20 -15164.552003   7007.853758 -19289.743441    -67.652203               P   P
PR21 -14618.594812  20752.411500  -2416.871969   -289.384331               P   P
PR24  15501.718551  -7738.460033  18738.879227     86.801263               P   P
PE01  19548.006731  17524.639464 -13686.554265   -606.789802               P   P
PE02 -19665.730234 -17468.185929  13547.891430    289.619651               P   P
PE03 -12072.390984 -24530.049181  11361.672687   -542.794423               P   P
PE04  17475.738019   6287.915985 -23038.853168   -995.772038               P   P
PE05    542.394859 -28696.969912  -7229.949404   -195.501018               P   P
PE07 -12672.096597  16106.935588  21364.786928   -653.577894               P   P
PE08 -17376.546900  -5850.292226  23245.267524   -503.890968               P   P
PE09  12375.966280 -16350.802157 -21343.245204   -467.106050               P   P
PE10  24950.321443 -11491.893833  11015.715430   -503.614077               P   P
PE11  23227.060312 -18302.479429    979.792358   4094.371315               P   P
PE12  22741.178441  -2990.680403  18695.277812   4687.698261               P   P
PE13 -23439.971717  18010.827905  -1671.234814    427.653918               P   P
PE14 -18215.200373 -14800.118172 -22466.228800  -1796.502487               P   P
PE15 -22651.100294   2987.927548 -18820.861632    754.664781               P   P
PE18  14375.587267   6162.994420  17644.242333  -1623.145597               P   P
PE19  10682.508419  26004.327548  -9262.601245  -2182.509899               P   P
PE21    754.949712  17615.622431 -23783.017755   -725.544780               P   P
PE24  20666.124072  -6713.689381  20094.062998   -533.757679               P   P
PE25   -444.234691 -17537.362682  23839.331954   -568.631587               P   P
PE26  -9559.962613  22272.890758  16999.249781   -972.539688               P   P
PE27 -19608.361304   7652.043738 -20808.743797   -264.928689               P   P
PE30 -28235.575375  -7543.564472  -4645.945260   -390.514277               P   P
PE31  28276.318097   6736.505637   5613.530394   -494.282391               P   P
PE33   8492.398359  13750.291047  24803.981676   -458.087048               P   P
PE34  -8724.003761 -13579.632641 -24817.343697   -509.469324               P   P
PE36  10451.536235 -22347.425684 -16341.542491   -352.620839               P   P
EOF
